NORAD_CAT_ID,OBJECT_NAME,OBJECT_TYPE,EPOCH,MEAN_MOTION,ECCENTRICITY,INCLINATION,RA_OF_ASC_NODE,ARG_OF_PERICENTER,MEAN_ANOMALY,BSTAR,MEAN_MOTION_DOT,MEAN_MOTION_DDOT,TLE_LINE0,TLE_LINE1,TLE_LINE2,SEMIMAJOR_AXIS,PERIOD,APOGEE,PERIGEE,DECAYED
52117.0,STARLINK-3738,PAYLOAD,2022-07-18 14:00:01,15.08815802,0.000169,53.2159,290.1847,48.7703,84.5038,0.00058442,9.019e-05,0.0,0 STARLINK-3738,1 52117U 22029AF  22199.58334491  .00009019  00000-0  58442-3 0  9996,2 52117  53.2159 290.1847 0001690  48.7703  84.5038 15.08815802 19993,6917.954000000002,95.439,540.988,538.65,0.0
52117.0,STARLINK-3738,PAYLOAD,2022-07-18 22:00:00,15.08841925,0.0001612,53.2155,288.6874,49.448,95.393,-0.0015362,-0.00024655,0.0,0 STARLINK-3738,1 52117U 22029AF  22199.91667824 -.00024655  00000-0 -15362-2 0  9990,2 52117  53.2155 288.6874 0001612  49.4480  95.3930 15.08841925  1307,6917.875,95.437,540.855,538.624,0.0
52117.0,STARLINK-3738,PAYLOAD,2022-07-19 14:00:01,15.08841685,0.000173,53.2153,285.6955,48.6265,119.4165,0.0011373,0.00017859,0.0,0 STARLINK-3738,1 52117U 22029AF  22200.58334491  .00017859  00000-0  11373-2 0  9991,2 52117  53.2153 285.6955 0001730  48.6265 119.4165 15.08841685 20149,6917.875,95.437,540.937,538.543,0.0
52117.0,STARLINK-3738,PAYLOAD,2022-07-19 22:00:00,15.08882185,0.0001717,53.216,284.2024,48.8558,130.7868,-0.0053303,-0.00084227,0.0,0 STARLINK-3738,1 52117U 22029AF  22200.91667824 -.00084227  00000-0 -53303-2 0  9991,2 52117  53.2160 284.2024 0001717  48.8558 130.7868 15.08882185  1304,6917.751,95.435,540.804,538.429,0.0
52117.0,STARLINK-3738,PAYLOAD,2022-07-20 14:00:01,15.08842177,0.0001779,53.2152,281.2059,47.8492,155.0632,4.6353e-05,4.5e-06,0.0,0 STARLINK-3738,1 52117U 22029AF  22201.58334491  .00000450  00000-0  46353-4 0  9999,2 52117  53.2152 281.2059 0001779  47.8492 155.0632 15.08842177  1300,6917.874,95.437,540.969,538.508,0.0
52117.0,STARLINK-3738,PAYLOAD,2022-07-20 22:00:01,15.0885817,0.0001635,53.2151,279.708,47.9805,166.5873,-0.005696,-0.00089856,0.0,0 STARLINK-3738,1 52117U 22029AF  22201.91668981 -.00089856  00000-0 -56960-2 0  9992,2 52117  53.2151 279.7080 0001635  47.9805 166.5873 15.08858170  1309,6917.825,95.436,540.821,538.559,0.0
52117.0,STARLINK-3738,PAYLOAD,2022-07-21 08:00:01,15.0885812,0.000173,53.2161,277.8411,54.4713,264.502,-0.003345,-0.00053158,0.0,0 STARLINK-3738,1 52117U 22029AF  22202.33334491 -.00053158  00000-0 -33450-2 0  9990,2 52117  53.2161 277.8411 0001730  54.4713 264.5020 15.08858120 20404,6917.825,95.436,540.887,538.493,0.0
52117.0,STARLINK-3738,PAYLOAD,2022-07-21 14:00:01,15.08815174,0.0001940999999999,53.2154,276.7164,49.5701,188.1668,0.0021644,0.00034303,0.0,0 STARLINK-3738,1 52117U 22029AF  22202.58335648  .00034303  00000-0  21644-2 0  9993,2 52117  53.2154 276.7164 0001941  49.5701 188.1668 15.08815174  1304,6917.956,95.439,541.164,538.4780000000002,0.0
52117.0,STARLINK-3738,PAYLOAD,2022-07-21 22:00:00,15.08852033,0.0001792,53.2156,275.2186,50.8281,198.4245,-0.0016824,-0.00026973,0.0,0 STARLINK-3738,1 52117U 22029AF  22202.91667824 -.00026973  00000-0 -16824-2 0  9994,2 52117  53.2156 275.2186 0001792  50.8281 198.4245 15.08852033 20497,6917.844,95.437,540.948,538.469,0.0
52117.0,STARLINK-3738,PAYLOAD,2022-07-22 06:00:00,15.08846524,0.0001749,53.2157,273.7219,53.9597,206.8887,-0.0019273,-0.00030836,0.0,0 STARLINK-3738,1 52117U 22029AF  22203.25001157 -.00030836  00000-0 -19273-2 0  9997,2 52117  53.2157 273.7219 0001749  53.9597 206.8887 15.08846524  1307,6917.86,95.437,540.935,538.516,0.0
52117.0,STARLINK-3738,PAYLOAD,2022-07-22 22:00:00,15.08842671,0.0001766999999999,53.216,270.7293,48.2717,235.7547,-0.00057556,-9.437e-05,0.0,0 STARLINK-3738,1 52117U 22029AF  22203.91667824 -.00009437  00000-0 -57556-3 0  9999,2 52117  53.2160 270.7293 0001767  48.2717 235.7547 15.08842671 20642,6917.871999999999,95.437,540.96,538.515,0.0
52117.0,STARLINK-3738,PAYLOAD,2022-07-23 14:00:01,15.08830318,0.0001925,53.2162,267.7379,46.1701,261.1135,0.0019925999999999,0.00031558,0.0,0 STARLINK-3738,1 52117U 22029AF  22204.58335648  .00031558  00000-0  19926-2 0  9994,2 52117  53.2162 267.7379 0001925  46.1701 261.1135 15.08830318  1304,6917.91,95.438,541.107,538.443,0.0
52117.0,STARLINK-3738,PAYLOAD,2022-07-23 22:00:00,15.0885005,0.0001721999999999,53.2163,266.2401,47.5329,271.2962,-0.0019262,-0.00030821,0.0,0 STARLINK-3738,1 52117U 22029AF  22204.91667824 -.00030821  00000-0 -19262-2 0  9992,2 52117  53.2163 266.2401 0001722  47.5329 271.2962 15.08850050 20790,6917.85,95.437,540.906,538.523,0.0
52117.0,STARLINK-3738,PAYLOAD,2022-07-24 14:00:01,15.08827472,0.0001809,53.2162,263.249,42.6104,299.3973,2.9178e-05,1.76e-06,0.0,0 STARLINK-3738,1 52117U 22029AF  22205.58334491  .00000176  00000-0  29178-4 0  9994,2 52117  53.2162 263.2490 0001809  42.6104 299.3973 15.08827472 20893,6917.919,95.438,541.035,538.5319999999998,0.0
52117.0,STARLINK-3738,PAYLOAD,2022-07-24 22:00:00,15.08807834,0.0001585,53.2161,261.7511,44.534,309.061,0.00018264,2.617e-05,0.0,0 STARLINK-3738,1 52117U 22029AF  22205.91667824  .00002617  00000-0  18264-3 0  9995,2 52117  53.2161 261.7511 0001585  44.5340 309.0610 15.08807834  1305,6917.979,95.44,540.94,538.747,0.0
52117.0,STARLINK-3738,PAYLOAD,2022-07-25 14:00:01,15.08795765,0.0001751,53.2157,258.7602,41.12600000000001,335.5967,0.0026252,0.00041689,0.0,0 STARLINK-3738,1 52117U 22029AF  22206.58334491  .00041689  00000-0  26252-2 0  9997,2 52117  53.2157 258.7602 0001751  41.1260 335.5967 15.08795765  1304,6918.016,95.44,541.092,538.669,0.0
52117.0,STARLINK-3738,PAYLOAD,2022-07-25 22:00:00,15.08810874,0.0001571999999999,53.2154,257.2623,45.5953,342.6926,0.00070207,0.00010894,0.0,0 STARLINK-3738,1 52117U 22029AF  22206.91667824  .00010894  00000-0  70207-3 0  9997,2 52117  53.2154 257.2623 0001572  45.5953 342.6926 15.08810874  1309,6917.969,95.439,540.922,538.747,0.0
52117.0,STARLINK-3738,PAYLOAD,2022-07-26 06:00:00,15.08837974,0.0001604,53.2154,255.7665,47.1104,352.7339,-0.0017502,-0.00028033,0.0,0 STARLINK-3738,1 52117U 22029AF  22207.25001157 -.00028033  00000-0 -17502-2 0  9990,2 52117  53.2154 255.7665 0001604  47.1104 352.7339 15.08837974 21155,6917.887,95.438,540.861,538.6419999999998,0.0
52117.0,STARLINK-3738,PAYLOAD,2022-07-26 14:00:01,15.088011300000002,0.0001757,53.2149,254.2715,41.5295,9.9001,0.0026123,0.00041488,0.0,0 STARLINK-3738,1 52117U 22029AF  22207.58334491  .00041488  00000-0  26123-2 0  9992,2 52117  53.2149 254.2715 0001757  41.5295   9.9001 15.08801130  1304,6917.999,95.44,541.08,538.649,0.0
52117.0,STARLINK-3738,PAYLOAD,2022-07-26 22:00:00,15.08811632,0.0001587,53.2158,252.7734,46.4857,16.5169,0.001125,0.00017648,0.0,0 STARLINK-3738,1 52117U 22029AF  22207.91667824  .00017648  00000-0  11250-2 0  9994,2 52117  53.2158 252.7734 0001587  46.4857  16.5169 15.08811632 21250,6917.967,95.439,540.93,538.734,0.0
52117.0,STARLINK-3738,PAYLOAD,2022-07-27 14:00:01,15.08804566,0.00018,53.216,249.7826,41.6927,44.4617,0.0024149,0.00038317,0.0,0 STARLINK-3738,1 52117U 22029AF  22208.58334491  .00038317  00000-0  24149-2 0  9996,2 52117  53.2160 249.7826 0001800  41.6927  44.4617 15.08804566  1304,6917.989000000001,95.44,541.099,538.6080000000002,0.0
52117.0,STARLINK-3738,PAYLOAD,2022-07-27 22:00:00,15.088124300000002,0.0001636,53.216,248.2845,46.4543,51.279,0.0015738,0.00024829,0.0,0 STARLINK-3738,1 52117U 22029AF  22208.91667824  .00024829  00000-0  15738-2 0  9999,2 52117  53.2160 248.2845 0001636  46.4543  51.2790 15.08812430  1300,6917.965,95.439,540.961,538.698,0.0
52117.0,STARLINK-3738,PAYLOAD,2022-07-28 14:00:01,15.088162300000002,0.0001943,53.2157,245.2935,43.0655,77.8272,0.0046268,0.00074074,0.0,0 STARLINK-3738,1 52117U 22029AF  22209.58334491  .00074074  00000-0  46268-2 0  9993,2 52117  53.2157 245.2935 0001943  43.0655  77.8272 15.08816230  1302,6917.953,95.439,541.1619999999998,538.474,0.0
52117.0,STARLINK-3738,PAYLOAD,2022-07-28 22:00:00,15.08843586,0.0001808,53.2158,243.7953,48.6659,83.8329,0.0019288,0.00030545,0.0,0 STARLINK-3738,1 52117U 22029AF  22209.91667824  .00030545  00000-0  19288-2 0  9996,2 52117  53.2158 243.7953 0001808  48.6659  83.8329 15.08843586  1305,6917.869000000002,95.437,540.985,538.484,0.0
52117.0,STARLINK-3738,PAYLOAD,2022-07-29 06:00:00,15.08955195,0.000196,53.217,242.305,49.173,94.9077,-0.0010635999999999,-0.00017229,0.0,0 STARLINK-3738,1 52117U 22029AF  22210.25001157 -.00017229  00000-0 -10636-2 0  9990,2 52117  53.2170 242.3050 0001960  49.1730  94.9077 15.08955195 21605,6917.528,95.43,540.749,538.0369999999998,0.0
52117.0,STARLINK-3738,PAYLOAD,2022-07-29 14:00:01,15.08850252,0.0002063,53.2157,240.804,44.0579,111.6792,0.0019855999999999,0.00031464,0.0,0 STARLINK-3738,1 52117U 22029AF  22210.58334491  .00031464  00000-0  19856-2 0  9994,2 52117  53.2157 240.8040 0002063  44.0579 111.6792 15.08850252  1306,6917.849,95.437,541.141,538.2869999999998,0.0
52117.0,STARLINK-3738,PAYLOAD,2022-07-29 22:00:00,15.08857693,0.0001875,53.216,239.3058,48.1426,119.2222,0.00010458,1.377e-05,0.0,0 STARLINK-3738,1 52117U 22029AF  22210.91667824  .00001377  00000-0  10458-3 0  9990,2 52117  53.2160 239.3058 0001875  48.1426 119.2222 15.08857693  1306,6917.826,95.436,540.988,538.394,0.0
52117.0,STARLINK-3738,PAYLOAD,2022-07-30 06:00:00,15.08861884,0.0001954,53.2162,237.8102,46.6263,132.355,-0.0023553,-0.00037601,0.0,0 STARLINK-3738,1 52117U 22029AF  22211.25001157 -.00037601  00000-0 -23553-2 0  9999,2 52117  53.2162 237.8102 0001954  46.6263 132.3550 15.08861884 21759,6917.813,95.436,541.03,538.327,0.0
52117.0,STARLINK-3738,PAYLOAD,2022-07-30 14:00:01,15.08834709,0.0002069,53.2161,236.3145,42.5265,148.0599,0.0013449,0.00021178,0.0,0 STARLINK-3738,1 52117U 22029AF  22211.58334491  .00021178  00000-0  13449-2 0  9998,2 52117  53.2161 236.3145 0002069  42.5265 148.0599 15.08834709  1306,6917.897,95.438,541.193,538.33,0.0
